CUPID                   
1 49264U 21088E   26068.66993977  .00009454  00000+0  38662-3 0  9991
2 49264  97.3985 131.0756 0013746  59.9938 300.2662 15.24473777245013
STARLINK-31542          
1 59194U 24045S   26068.47876661 -.00000679  00000+0 -15163-4 0  9993
2 59194  43.0024  93.3421 0001265 268.1619  91.9087 15.27560483113136
