[{"OBJECT_NAME":"CUPID","OBJECT_ID":"2021-088E","EPOCH":"2026-03-09T16:04:42.796128","MEAN_MOTION":15.24473777,"ECCENTRICITY":0.0013746,"INCLINATION":97.3985,"RA_OF_ASC_NODE":131.0756,"ARG_OF_PERICENTER":59.9938,"MEAN_ANOMALY":300.2662,"EPHEMERIS_TYPE":0,"CLASSIFICATION_TYPE":"U","NORAD_CAT_ID":49264,"ELEMENT_SET_NO":999,"REV_AT_EPOCH":24501,"BSTAR":0.00038662302,"MEAN_MOTION_DOT":9.454e-5,"MEAN_MOTION_DDOT":0},{"OBJECT_NAME":"STARLINK-31542","OBJECT_ID":"2024-045S","EPOCH":"2026-03-09T11:29:25.435104","MEAN_MOTION":15.27560483,"ECCENTRICITY":0.00012658,"INCLINATION":43.0024,"RA_OF_ASC_NODE":93.3421,"ARG_OF_PERICENTER":268.1619,"MEAN_ANOMALY":91.9087,"EPHEMERIS_TYPE":0,"CLASSIFICATION_TYPE":"U","NORAD_CAT_ID":59194,"ELEMENT_SET_NO":999,"REV_AT_EPOCH":11313,"BSTAR":-1.5162934e-5,"MEAN_MOTION_DOT":-6.79e-6,"MEAN_MOTION_DDOT":0}]
